NORAD_CAT_ID,OBJECT_NAME,OBJECT_TYPE,EPOCH,MEAN_MOTION,ECCENTRICITY,INCLINATION,RA_OF_ASC_NODE,ARG_OF_PERICENTER,MEAN_ANOMALY,BSTAR,MEAN_MOTION_DOT,MEAN_MOTION_DDOT,TLE_LINE0,TLE_LINE1,TLE_LINE2,SEMIMAJOR_AXIS,PERIOD,APOGEE,PERIGEE,DECAYED
55761.0,STARLINK-5611,PAYLOAD,2023-12-12 12:19:31,14.9833022,0.0002782,69.9994,127.5575,267.2856,92.7985,2.2858e-05,1.8e-06,0.0,0 STARLINK-5611,1 55761U 23028W   23346.51356008  .00000180  00000-0  22858-4 0  9993,2 55761  69.9994 127.5575 0002782 267.2856  92.7985 14.98330220 43974,6950.192,96.107,573.991,570.124,0.0
55761.0,STARLINK-5611,PAYLOAD,2023-12-12 13:55:39,14.98330337,0.0002779,69.9994,127.3891,267.2686,92.8155,2.3715e-05,1.9e-06,0.0,0 STARLINK-5611,1 55761U 23028W   23346.58031993  .00000190  00000-0  23715-4 0  9997,2 55761  69.9994 127.3891 0002779 267.2686  92.8155 14.98330337 43980,6950.192,96.107,573.988,570.125,0.0
55761.0,STARLINK-5611,PAYLOAD,2023-12-12 18:44:03,14.98330284,0.0002795,69.9994,126.8841,268.1849,91.899,2.0802e-05,1.55e-06,0.0,0 STARLINK-5611,1 55761U 23028W   23346.78060001  .00000155  00000-0  20802-4 0  9996,2 55761  69.9994 126.8841 0002795 268.1849  91.8990 14.98330284 44010,6950.192,96.107,574.0,570.114,0.0
55761.0,STARLINK-5611,PAYLOAD,2023-12-13 13:57:40,14.98332174,0.0002813,69.9995,124.8642,267.0139,93.0698,9.4586e-06,2e-07,0.0,0 STARLINK-5611,1 55761U 23028W   23347.58171800  .00000020  00000-0  94586-5 0  9997,2 55761  69.9995 124.8642 0002813 267.0139  93.0698 14.98332174 44131,6950.186,96.107,574.006,570.096,0.0
55761.0,STARLINK-5611,PAYLOAD,2023-12-13 18:46:04,14.9833279,0.0002805,69.9996,124.3594,266.4502,93.6336,1.6156e-05,1e-06,0.0,0 STARLINK-5611,1 55761U 23028W   23347.78199710  .00000100  00000-0  16156-4 0  9994,2 55761  69.9996 124.3594 0002805 266.4502  93.6336 14.98332790 44163,6950.184,96.107,573.999,570.1,0.0
55761.0,STARLINK-5611,PAYLOAD,2023-12-14 13:59:41,14.98329103,0.0002775,69.9998,122.3399,263.4542,96.6301,-1.3623e-05,-2.56e-06,0.0,0 STARLINK-5611,1 55761U 23028W   23348.58311968 -.00000256  00000-0 -13623-4 0  9994,2 55761  69.9998 122.3399 0002775 263.4542  96.6301 14.98329103 44285,6950.196,96.107,573.989,570.132,0.0
55761.0,STARLINK-5611,PAYLOAD,2023-12-14 18:48:05,14.98330259,0.0002758,69.9998,121.8348,263.5052,96.5793,1.8602e-06,-7.1e-07,0.0,0 STARLINK-5611,1 55761U 23028W   23348.78339847 -.00000071  00000-0  18602-5 0  9999,2 55761  69.9998 121.8348 0002758 263.5052  96.5793 14.98330259 44313,6950.192,96.107,573.974,570.14,0.0
55761.0,STARLINK-5611,PAYLOAD,2023-12-15 14:01:42,14.98325634,0.0002662,70.0001,119.8156,257.6456,102.4405,-4.6579e-05,-6.49e-06,0.0,0 STARLINK-5611,1 55761U 23028W   23349.58452326 -.00000649  00000-0 -46579-4 0  9991,2 55761  70.0001 119.8156 0002662 257.6456 102.4405 14.98325634 44432,6950.206,96.107,573.922,570.221,0.0
55761.0,STARLINK-5611,PAYLOAD,2023-12-15 18:50:07,14.98323795,0.0002708,70.0001,119.3107,260.2924,99.7929,-6.7025e-05,-8.92e-06,0.0,0 STARLINK-5611,1 55761U 23028W   23349.78480584 -.00000892  00000-0 -67025-4 0  9999,2 55761  70.0001 119.3107 0002708 260.2924  99.7929 14.98323795 44462,6950.212,96.107,573.959,570.195,0.0
55761.0,STARLINK-5611,PAYLOAD,2023-12-16 12:27:34,14.98336501,0.0002989,69.9994,117.4583,266.5689,93.5128,7.1286e-05,7.58e-06,0.0,0 STARLINK-5611,1 55761U 23028W   23350.51915373  .00000758  00000-0  71286-4 0  9994,2 55761  69.9994 117.4583 0002989 266.5689  93.5128 14.98336501 44579,6950.173,96.107,574.115,569.96,0.0
55761.0,STARLINK-5611,PAYLOAD,2023-12-16 14:03:43,14.98333959,0.0002841,69.9998,117.2893,267.8647,92.2187,8.0384e-05,8.66e-06,0.0,0 STARLINK-5611,1 55761U 23028W   23350.58591587  .00000866  00000-0  80384-4 0  9997,2 55761  69.9998 117.2893 0002841 267.8647  92.2187 14.98333959 44586,6950.181,96.107,574.02,570.071,0.0
55761.0,STARLINK-5611,PAYLOAD,2023-12-16 18:52:06,14.98339511,0.0002946,69.9996,116.7853,266.0165,94.0658,0.00010336,1.141e-05,0.0,0 STARLINK-5611,1 55761U 23028W   23350.78618987  .00001141  00000-0  10336-3 0  9999,2 55761  69.9996 116.7853 0002946 266.0165  94.0658 14.98339511 44613,6950.163,96.106,574.076,569.981,0.0
55761.0,STARLINK-5611,PAYLOAD,2023-12-17 12:29:36,14.98322812,0.0002482,70.0013,114.9359,243.6052,116.4853,3.9744e-05,3.81e-06,0.0,0 STARLINK-5611,1 55761U 23028W   23351.52056175  .00000381  00000-0  39744-4 0  9997,2 55761  70.0013 114.9359 0002482 243.6052 116.4853 14.98322812 44722,6950.215,96.107,573.805,570.355,0.0
55761.0,STARLINK-5611,PAYLOAD,2023-12-17 14:05:44,14.98323571,0.0002796,70.0001,114.7658,260.1252,99.9591,2.0494e-05,1.52e-06,0.0,0 STARLINK-5611,1 55761U 23028W   23351.58732273  .00000152  00000-0  20494-4 0  9991,2 55761  70.0001 114.7658 0002796 260.1252  99.9591 14.98323571 44731,6950.213,96.107,574.021,570.134,0.0
55761.0,STARLINK-5611,PAYLOAD,2023-12-17 18:54:08,14.98324514,0.000282,70.0,114.2608,261.1665,98.9174,2.8553e-05,2.48e-06,0.0,0 STARLINK-5611,1 55761U 23028W   23351.78760255  .00000248  00000-0  28553-4 0  9994,2 55761  70.0000 114.2608 0002820 261.1665  98.9174 14.98324514 44764,6950.21,96.107,574.035,570.115,0.0
55761.0,STARLINK-5611,PAYLOAD,2023-12-18 10:55:28,14.9833625,0.0003052,70.0001,112.5765,268.125,91.9559,-3.2632e-05,-4.82e-06,0.0,0 STARLINK-5611,1 55761U 23028W   23352.45519565 -.00000482  00000-0 -32632-4 0  9990,2 55761  70.0001 112.5765 0003052 268.1250  91.9559 14.98336250 44866,6950.174,96.107,574.16,569.917,0.0
55761.0,STARLINK-5611,PAYLOAD,2023-12-18 14:07:44,14.98338169,0.0002881,70.0002,112.2406,264.7385,95.3446,-1.0961e-05,-2.24e-06,0.0,0 STARLINK-5611,1 55761U 23028W   23352.58871344 -.00000224  00000-0 -10961-4 0  9995,2 55761  70.0002 112.2406 0002881 264.7385  95.3446 14.98338169 44882,6950.168,96.106,574.035,570.03,0.0
55761.0,STARLINK-5611,PAYLOAD,2023-12-18 17:20:00,14.98341278,0.0002872,70.0002,111.9036,264.7537,95.3294,2.3017e-05,1.82e-06,0.0,0 STARLINK-5611,1 55761U 23028W   23352.72222946  .00000182  00000-0  23017-4 0  9996,2 55761  70.0002 111.9036 0002872 264.7537  95.3294 14.98341278 44905,6950.158,96.106,574.019,570.027,0.0
55761.0,STARLINK-5611,PAYLOAD,2023-12-19 10:57:29,14.98326732,0.0002794,70.0002,110.0522,259.0162,101.0683,4.3546e-05,4.27e-06,0.0,0 STARLINK-5611,1 55761U 23028W   23353.45659587  .00000427  00000-0  43546-4 0  9993,2 55761  70.0002 110.0522 0002794 259.0162 101.0683 14.98326732 45017,6950.203,96.107,574.01,570.126,0.0
55761.0,STARLINK-5611,PAYLOAD,2023-12-19 14:09:46,14.98323834,0.0002747,70.0005,109.7163,256.1454,103.94,7.545e-07,-8.4e-07,0.0,0 STARLINK-5611,1 55761U 23028W   23353.59011901 -.00000084  00000-0  75450-6 0  9991,2 55761  70.0005 109.7163 0002747 256.1454 103.9400 14.98323834 45036,6950.212,96.107,573.986,570.168,0.0
55761.0,STARLINK-5611,PAYLOAD,2023-12-20 10:59:31,14.98326289,0.0002645,70.0016,107.5285,246.9928,113.0952,-3.1658e-05,-4.71e-06,0.0,0 STARLINK-5611,1 55761U 23028W   23354.45799872 -.00000471  00000-0 -31658-4 0  9998,2 55761  70.0016 107.5285 0002645 246.9928 113.0952 14.98326289 45164,6950.204,96.107,573.908,570.231,0.0
55761.0,STARLINK-5611,PAYLOAD,2023-12-20 14:11:47,14.98327007,0.0002603,70.0014,107.1918,242.4881,117.6014,-5.9597e-05,-8.04e-06,0.0,0 STARLINK-5611,1 55761U 23028W   23354.59151930 -.00000804  00000-0 -59597-4 0  9992,2 55761  70.0014 107.1918 0002603 242.4881 117.6014 14.98327007 45184,6950.202,96.107,573.876,570.258,0.0
55761.0,STARLINK-5611,PAYLOAD,2023-12-20 17:24:03,14.98329093,0.0002813,70.0006,106.855,258.6778,101.4065,-8.8644e-05,-1.15e-05,0.0,0 STARLINK-5611,1 55761U 23028W   23354.72503896 -.00001150  00000-0 -88644-4 0  9999,2 55761  70.0006 106.8550 0002813 258.6778 101.4065 14.98329093 45207,6950.196,96.107,574.016,570.106,0.0
55761.0,STARLINK-5611,PAYLOAD,2023-12-21 11:01:32,14.98320399,0.0002723,70.0001,105.0026,253.5661,106.5199,-0.00010166,-1.305e-05,0.0,0 STARLINK-5611,1 55761U 23028W   23355.45939913 -.00001305  00000-0 -10166-3 0  9998,2 55761  70.0001 105.0026 0002723 253.5661 106.5199 14.98320399 45312,6950.223,96.108,573.98,570.195,0.0
55761.0,STARLINK-5611,PAYLOAD,2023-12-21 14:13:48,14.98316292,0.0002731,70.0008,104.6667,255.3747,104.7109,-6.1575e-05,-8.27e-06,0.0,0 STARLINK-5611,1 55761U 23028W   23355.59292249 -.00000827  00000-0 -61575-4 0  9996,2 55761  70.0008 104.6667 0002731 255.3747 104.7109 14.98316292 45339,6950.235,96.108,573.998,570.202,0.0
55761.0,STARLINK-5611,PAYLOAD,2023-12-21 15:49:56,14.98317142,0.0002701,70.0007,104.4979,260.112,99.9734,-5.2562e-05,-7.2e-06,0.0,0 STARLINK-5611,1 55761U 23028W   23355.65968191 -.00000720  00000-0 -52562-4 0  9997,2 55761  70.0007 104.4979 0002701 260.1120  99.9734 14.98317142 45343,6950.233,96.108,573.975,570.22,0.0
55761.0,STARLINK-5611,PAYLOAD,2023-12-22 11:03:33,14.98324166,0.0002948,69.9997,102.4751,272.4832,87.5989,-2.9124e-05,-4.4e-06,0.0,0 STARLINK-5611,1 55761U 23028W   23356.46080003 -.00000440  00000-0 -29124-4 0  9991,2 55761  69.9997 102.4751 0002948 272.4832  87.5989 14.98324166 45465,6950.211,96.107,574.125,570.027,0.0
55761.0,STARLINK-5611,PAYLOAD,2023-12-22 14:15:48,14.98326124,0.0002533,70.0011,102.1416,256.6031,103.4846,3.1395e-05,2.82e-06,0.0,0 STARLINK-5611,1 55761U 23028W   23356.59431709  .00000282  00000-0  31395-4 0  9993,2 55761  70.0011 102.1416 0002533 256.6031 103.4846 14.98326124 45483,6950.205,96.107,573.83,570.309,0.0
55761.0,STARLINK-5611,PAYLOAD,2023-12-22 17:28:04,14.98333285,0.0002469,70.0003,101.8048,264.1638,95.924,6.2589e-05,6.54e-06,0.0,0 STARLINK-5611,1 55761U 23028W   23356.72783273  .00000654  00000-0  62589-4 0  9996,2 55761  70.0003 101.8048 0002469 264.1638  95.9240 14.98333285 45508,6950.183,96.107,573.764,570.332,0.0
55761.0,STARLINK-5611,PAYLOAD,2023-12-23 14:17:49,14.9834714,0.0002302,70.0008,99.6161,245.4112,114.6808,-0.00038318,-4.664e-05,0.0,0 STARLINK-5611,1 55761U 23028W   23357.59571292 -.00004664  00000-0 -38318-3 0  9997,2 55761  70.0008  99.6161 0002302 245.4112 114.6808 14.98347140 45636,6950.14,96.106,573.605,570.405,0.0
